{"fetched_at":"2026-07-24T07:06:41.580Z","source":"https://celestrak.org/NORAD/elements/gp.php?NAME=NUSAT&FORMAT=JSON","constellation":"satellogic","records":[{"OBJECT_NAME":"NUSAT-26 (M SOMERVILLE)","OBJECT_ID":"2022-033AD","EPOCH":"2026-07-23T19:41:54.901248","CLASSIFICATION_TYPE":"U","MEAN_MOTION":15.43492702,"ECCENTRICITY":0.0007306,"INCLINATION":97.2331,"RA_OF_ASC_NODE":283.6459,"ARG_OF_PERICENTER":112.9808,"MEAN_ANOMALY":247.2211,"EPHEMERIS_TYPE":0,"NORAD_CAT_ID":52184,"ELEMENT_SET_NO":999,"REV_AT_EPOCH":11035,"BSTAR":0.00017466,"MEAN_MOTION_DOT":0.00007746,"MEAN_MOTION_DDOT":0},{"OBJECT_NAME":"NUSAT-33 (ALBANIA-2)","OBJECT_ID":"2023-001AQ","EPOCH":"2026-07-23T19:33:24.881184","CLASSIFICATION_TYPE":"U","MEAN_MOTION":15.28380276,"ECCENTRICITY":0.000459,"INCLINATION":97.3053,"RA_OF_ASC_NODE":265.0198,"ARG_OF_PERICENTER":273.1938,"MEAN_ANOMALY":86.8777,"EPHEMERIS_TYPE":0,"NORAD_CAT_ID":55047,"ELEMENT_SET_NO":999,"REV_AT_EPOCH":19790,"BSTAR":0.00036418,"MEAN_MOTION_DOT":0.00009997,"MEAN_MOTION_DDOT":0},{"OBJECT_NAME":"NUSAT-35 (WILLIAMINA)","OBJECT_ID":"2023-001AR","EPOCH":"2026-07-23T20:26:37.723200","CLASSIFICATION_TYPE":"U","MEAN_MOTION":15.35997549,"ECCENTRICITY":0.0009469,"INCLINATION":97.1835,"RA_OF_ASC_NODE":256.6916,"ARG_OF_PERICENTER":337.4225,"MEAN_ANOMALY":22.6601,"EPHEMERIS_TYPE":0,"NORAD_CAT_ID":55048,"ELEMENT_SET_NO":999,"REV_AT_EPOCH":19803,"BSTAR":0.00042787,"MEAN_MOTION_DOT":0.00014951,"MEAN_MOTION_DDOT":0},{"OBJECT_NAME":"NUSAT-39 (TIKVAH ALPER)","OBJECT_ID":"2023-054Z","EPOCH":"2026-07-23T18:32:25.162944","CLASSIFICATION_TYPE":"U","MEAN_MOTION":15.48383507,"ECCENTRICITY":0.0001674,"INCLINATION":97.3077,"RA_OF_ASC_NODE":114.9033,"ARG_OF_PERICENTER":246.501,"MEAN_ANOMALY":113.6065,"EPHEMERIS_TYPE":0,"NORAD_CAT_ID":56201,"ELEMENT_SET_NO":999,"REV_AT_EPOCH":18411,"BSTAR":0.00060541,"MEAN_MOTION_DOT":0.00032056,"MEAN_MOTION_DDOT":0},{"OBJECT_NAME":"NUSAT-38 (MARIA AGNESI)","OBJECT_ID":"2023-054AA","EPOCH":"2026-07-23T17:59:24.544896","CLASSIFICATION_TYPE":"U","MEAN_MOTION":15.51631285,"ECCENTRICITY":0.0007851,"INCLINATION":97.3018,"RA_OF_ASC_NODE":115.6504,"ARG_OF_PERICENTER":286.7954,"MEAN_ANOMALY":73.2437,"EPHEMERIS_TYPE":0,"NORAD_CAT_ID":56202,"ELEMENT_SET_NO":999,"REV_AT_EPOCH":18417,"BSTAR":0.00061357,"MEAN_MOTION_DOT":0.0003649,"MEAN_MOTION_DDOT":0},{"OBJECT_NAME":"NUSAT-37 (JOAN CLARKE)","OBJECT_ID":"2023-054AB","EPOCH":"2026-07-23T19:48:15.846624","CLASSIFICATION_TYPE":"U","MEAN_MOTION":15.60292225,"ECCENTRICITY":0.0008661,"INCLINATION":97.2587,"RA_OF_ASC_NODE":112.6668,"ARG_OF_PERICENTER":122.2469,"MEAN_ANOMALY":237.9629,"EPHEMERIS_TYPE":0,"NORAD_CAT_ID":56203,"ELEMENT_SET_NO":999,"REV_AT_EPOCH":18435,"BSTAR":0.00068742,"MEAN_MOTION_DOT":0.00056424,"MEAN_MOTION_DDOT":0},{"OBJECT_NAME":"NUSAT-40 (C SHOEMAKER)","OBJECT_ID":"2023-084M","EPOCH":"2026-07-23T21:09:48.314880","CLASSIFICATION_TYPE":"U","MEAN_MOTION":15.84631479,"ECCENTRICITY":0.0003018,"INCLINATION":97.4854,"RA_OF_ASC_NODE":354.5389,"ARG_OF_PERICENTER":173.0875,"MEAN_ANOMALY":187.0437,"EPHEMERIS_TYPE":0,"NORAD_CAT_ID":56943,"ELEMENT_SET_NO":999,"REV_AT_EPOCH":17460,"BSTAR":0.00082922,"MEAN_MOTION_DOT":0.00193827,"MEAN_MOTION_DDOT":0},{"OBJECT_NAME":"NUSAT-41 (C PAYNE-G)","OBJECT_ID":"2023-084N","EPOCH":"2026-07-23T19:33:53.661024","CLASSIFICATION_TYPE":"U","MEAN_MOTION":15.30059441,"ECCENTRICITY":0.0007685,"INCLINATION":97.5553,"RA_OF_ASC_NODE":342.1275,"ARG_OF_PERICENTER":178.1826,"MEAN_ANOMALY":181.9443,"EPHEMERIS_TYPE":0,"NORAD_CAT_ID":56944,"ELEMENT_SET_NO":999,"REV_AT_EPOCH":17338,"BSTAR":0.0004234,"MEAN_MOTION_DOT":0.00012257,"MEAN_MOTION_DDOT":0},{"OBJECT_NAME":"NUSAT-42 (M WONENBURGER)","OBJECT_ID":"2023-084AL","EPOCH":"2026-07-23T20:41:07.554336","CLASSIFICATION_TYPE":"U","MEAN_MOTION":15.46806437,"ECCENTRICITY":0.0006915,"INCLINATION":97.5753,"RA_OF_ASC_NODE":350.5713,"ARG_OF_PERICENTER":119.9676,"MEAN_ANOMALY":240.226,"EPHEMERIS_TYPE":0,"NORAD_CAT_ID":56966,"ELEMENT_SET_NO":999,"REV_AT_EPOCH":17374,"BSTAR":0.00049303,"MEAN_MOTION_DOT":0.00024695,"MEAN_MOTION_DDOT":0},{"OBJECT_NAME":"NUSAT-44 (MARIA MITCHELL)","OBJECT_ID":"2024-043AA","EPOCH":"2026-07-23T20:05:30.977376","CLASSIFICATION_TYPE":"U","MEAN_MOTION":15.29985107,"ECCENTRICITY":0.0006693,"INCLINATION":97.5486,"RA_OF_ASC_NODE":345.6638,"ARG_OF_PERICENTER":107.0679,"MEAN_ANOMALY":253.1295,"EPHEMERIS_TYPE":0,"NORAD_CAT_ID":59122,"ELEMENT_SET_NO":999,"REV_AT_EPOCH":13287,"BSTAR":0.00040186,"MEAN_MOTION_DOT":0.00011599,"MEAN_MOTION_DDOT":0},{"OBJECT_NAME":"NUSAT-50 (NANCY ROMAN)","OBJECT_ID":"2024-149AB","EPOCH":"2026-07-23T11:06:09.561024","CLASSIFICATION_TYPE":"U","MEAN_MOTION":15.30426807,"ECCENTRICITY":0.0004769,"INCLINATION":97.3775,"RA_OF_ASC_NODE":285.4776,"ARG_OF_PERICENTER":82.3777,"MEAN_ANOMALY":277.8006,"EPHEMERIS_TYPE":0,"NORAD_CAT_ID":60493,"ELEMENT_SET_NO":999,"REV_AT_EPOCH":10767,"BSTAR":0.00030685,"MEAN_MOTION_DOT":0.00008957,"MEAN_MOTION_DDOT":0},{"OBJECT_NAME":"NUSAT-48 (HENRIETTA LEAVITT)","OBJECT_ID":"2024-149AG","EPOCH":"2026-07-23T06:09:02.536704","CLASSIFICATION_TYPE":"U","MEAN_MOTION":15.29990066,"ECCENTRICITY":0.0004865,"INCLINATION":97.3908,"RA_OF_ASC_NODE":285.5766,"ARG_OF_PERICENTER":130.536,"MEAN_ANOMALY":229.6305,"EPHEMERIS_TYPE":0,"NORAD_CAT_ID":60498,"ELEMENT_SET_NO":999,"REV_AT_EPOCH":10765,"BSTAR":0.00033988,"MEAN_MOTION_DOT":0.00009797,"MEAN_MOTION_DDOT":0},{"OBJECT_NAME":"NUSAT-49 (KLARA DAN VON NEUMANN)","OBJECT_ID":"2024-149AJ","EPOCH":"2026-07-23T04:03:54.538272","CLASSIFICATION_TYPE":"U","MEAN_MOTION":15.29873402,"ECCENTRICITY":0.0002896,"INCLINATION":97.378,"RA_OF_ASC_NODE":285.2115,"ARG_OF_PERICENTER":148.3571,"MEAN_ANOMALY":211.7845,"EPHEMERIS_TYPE":0,"NORAD_CAT_ID":60500,"ELEMENT_SET_NO":999,"REV_AT_EPOCH":10763,"BSTAR":0.000096043,"MEAN_MOTION_DOT":0.00002702,"MEAN_MOTION_DDOT":0},{"OBJECT_NAME":"NUSAT-45 (UZMASAT-1)","OBJECT_ID":"2025-009AH","EPOCH":"2026-07-23T16:20:45.736224","CLASSIFICATION_TYPE":"U","MEAN_MOTION":15.29917798,"ECCENTRICITY":0.0002478,"INCLINATION":97.3584,"RA_OF_ASC_NODE":285.5475,"ARG_OF_PERICENTER":155.7492,"MEAN_ANOMALY":204.3866,"EPHEMERIS_TYPE":0,"NORAD_CAT_ID":62640,"ELEMENT_SET_NO":999,"REV_AT_EPOCH":8450,"BSTAR":0.00029214,"MEAN_MOTION_DOT":0.00008389,"MEAN_MOTION_DDOT":0},{"OBJECT_NAME":"NUSAT-52","OBJECT_ID":"2025-276AC","EPOCH":"2026-07-23T03:49:21.613152","CLASSIFICATION_TYPE":"U","MEAN_MOTION":15.20092426,"ECCENTRICITY":0.0001926,"INCLINATION":97.419,"RA_OF_ASC_NODE":277.1144,"ARG_OF_PERICENTER":228.3498,"MEAN_ANOMALY":131.7572,"EPHEMERIS_TYPE":0,"NORAD_CAT_ID":66692,"ELEMENT_SET_NO":999,"REV_AT_EPOCH":3588,"BSTAR":0.00024234,"MEAN_MOTION_DOT":0.00005166,"MEAN_MOTION_DDOT":0},{"OBJECT_NAME":"NUSAT-51 (YVONNE BRILL)","OBJECT_ID":"2025-276CC","EPOCH":"2026-07-23T11:40:49.399968","CLASSIFICATION_TYPE":"U","MEAN_MOTION":15.2063539,"ECCENTRICITY":0.0002459,"INCLINATION":97.4196,"RA_OF_ASC_NODE":277.5864,"ARG_OF_PERICENTER":196.1557,"MEAN_ANOMALY":163.96,"EPHEMERIS_TYPE":0,"NORAD_CAT_ID":66740,"ELEMENT_SET_NO":999,"REV_AT_EPOCH":3594,"BSTAR":0.00028383,"MEAN_MOTION_DOT":0.0000616,"MEAN_MOTION_DDOT":0}]}
