NUSAT-26 (M SOMERVILLE) 
1 52184U 22033AD  26204.82077432  .00007746  00000+0  17466-3 0  9997
2 52184  97.2331 283.6459 0007306 112.9808 247.2211 15.43492702110355
NUSAT-33 (ALBANIA-2)    
1 55047U 23001AQ  26204.81487131  .00009997  00000+0  36418-3 0  9992
2 55047  97.3053 265.0198 0004590 273.1938  86.8777 15.28380276197903
NUSAT-35 (WILLIAMINA)   
1 55048U 23001AR  26204.85182550  .00014951  00000+0  42787-3 0  9996
2 55048  97.1835 256.6916 0009469 337.4225  22.6601 15.35997549198031
NUSAT-39 (TIKVAH ALPER) 
1 56201U 23054Z   26204.77251346  .00032056  00000+0  60541-3 0  9991
2 56201  97.3077 114.9033 0001674 246.5010 113.6065 15.48383507184117
NUSAT-38 (MARIA AGNESI) 
1 56202U 23054AA  26204.74958964  .00036490  00000+0  61357-3 0  9991
2 56202  97.3018 115.6504 0007851 286.7954  73.2437 15.51631285184173
NUSAT-37 (JOAN CLARKE)  
1 56203U 23054AB  26204.82518341  .00056424  00000+0  68742-3 0  9996
2 56203  97.2587 112.6668 0008661 122.2469 237.9629 15.60292225184356
NUSAT-40 (C SHOEMAKER)  
1 56943U 23084M   26204.88180920  .00193827  00000+0  82922-3 0  9999
2 56943  97.4854 354.5389 0003018 173.0875 187.0437 15.84631479174602
NUSAT-41 (C PAYNE-G)    
1 56944U 23084N   26204.81520441  .00012257  00000+0  42340-3 0  9996
2 56944  97.5553 342.1275 0007685 178.1826 181.9443 15.30059441173381
NUSAT-42 (M WONENBURGER)
1 56966U 23084AL  26204.86189299  .00024695  00000+0  49303-3 0  9992
2 56966  97.5753 350.5713 0006915 119.9676 240.2260 15.46806437173746
NUSAT-44 (MARIA MITCHE*)
1 59122U 24043AA  26204.83716409  .00011599  00000+0  40186-3 0  9990
2 59122  97.5486 345.6638 0006693 107.0679 253.1295 15.29985107132874
NUSAT-50 (NANCY ROMAN)  
1 60493U 24149AB  26204.46261066  .00008957  00000+0  30685-3 0  9990
2 60493  97.3775 285.4776 0004769  82.3777 277.8006 15.30426807107678
NUSAT-48 (HENRIETTA LE*)
1 60498U 24149AG  26204.25627936  .00009797  00000+0  33988-3 0  9996
2 60498  97.3908 285.5766 0004865 130.5360 229.6305 15.29990066107658
NUSAT-49 (KLARA DAN VO*)
1 60500U 24149AJ  26204.16938123  .00002702  00000+0  96043-4 0  9994
2 60500  97.3780 285.2115 0002896 148.3571 211.7845 15.29873402107631
NUSAT-45 (UZMASAT-1)    
1 62640U 25009AH  26204.68108491  .00008389  00000+0  29214-3 0  9993
2 62640  97.3584 285.5475 0002478 155.7492 204.3866 15.29917798 84500
NUSAT-52                
1 66692U 25276AC  26204.15927793  .00005166  00000+0  24234-3 0  9993
2 66692  97.4190 277.1144 0001926 228.3498 131.7572 15.20092426 35882
NUSAT-51 (YVONNE BRILL) 
1 66740U 25276CC  26204.48668287  .00006160  00000+0  28383-3 0  9997
2 66740  97.4196 277.5864 0002459 196.1557 163.9600 15.20635390 35944
